{
  "type": "FeatureCollection",
  "features": [
    {
      "type": "Feature",
      "properties": {
        "norad_id": 31202,
        "name": "FENGYUN 1C DEB",
        "group": "fengyun-1c-debris",
        "lat": 70.59055250920808,
        "lon": 23.264322089194792,
        "alt_km": 587.2916574720666,
        "timestamp": "2025-12-25T07:41:10.004095+00:00",
        "meta_object_name": "FENGYUN 1C DEB",
        "meta_object_id": "1999-025BKG",
        "meta_epoch": "2025-12-21T09:34:57.882720",
        "meta_mean_motion": 14.84207348,
        "meta_eccentricity": 0.00689637,
        "meta_inclination": 96.5715,
        "meta_ra_of_asc_node": 39.1289,
        "meta_arg_of_pericenter": 148.3475,
        "meta_mean_anomaly": 226.6402,
        "meta_ephemeris_type": 0,
        "meta_classification_type": "U",
        "meta_norad_cat_id": 31202,
        "meta_element_set_no": 999,
        "meta_rev_at_epoch": 99283,
        "meta_bstar": 0.00068153485,
        "meta_mean_motion_dot": 5.909e-05,
        "meta_mean_motion_ddot": 0,
        "tle_line1": "1 31202U 99025BKG 25355.39928105  .00005909  00000+0  68153-3 0  9998",
        "tle_line2": "2 31202  96.5715  39.1289 0068963 148.3475 226.6402 14.84207348992833"
      },
      "geometry": {
        "type": "Point",
        "coordinates": [
          23.264322089194792,
          70.59055250920808
        ]
      }
    },
    {
      "type": "Feature",
      "properties": {
        "norad_id": 31205,
        "name": "FENGYUN 1C DEB",
        "group": "fengyun-1c-debris",
        "lat": 10.161560990281924,
        "lon": -85.22475770006488,
        "alt_km": 697.8080000713262,
        "timestamp": "2025-12-25T07:41:10.004104+00:00",
        "meta_object_name": "FENGYUN 1C DEB",
        "meta_object_id": "1999-025BKK",
        "meta_epoch": "2025-12-24T05:36:00.827424",
        "meta_mean_motion": 14.23967089,
        "meta_eccentricity": 0.01623474,
        "meta_inclination": 99.2284,
        "meta_ra_of_asc_node": 91.9647,
        "meta_arg_of_pericenter": 164.6669,
        "meta_mean_anomaly": 195.9513,
        "meta_ephemeris_type": 0,
        "meta_classification_type": "U",
        "meta_norad_cat_id": 31205,
        "meta_element_set_no": 999,
        "meta_rev_at_epoch": 97374,
        "meta_bstar": 0.00014976871,
        "meta_mean_motion_dot": 3.44e-06,
        "meta_mean_motion_ddot": 0,
        "tle_line1": "1 31205U 99025BKK 25358.23334291  .00000344  00000+0  14977-3 0  9997",
        "tle_line2": "2 31205  99.2284  91.9647 0162347 164.6669 195.9513 14.23967089973746"
      },
      "geometry": {
        "type": "Point",
        "coordinates": [
          -85.22475770006488,
          10.161560990281924
        ]
      }
    },
    {
      "type": "Feature",
      "properties": {
        "norad_id": 31206,
        "name": "FENGYUN 1C DEB",
        "group": "fengyun-1c-debris",
        "lat": -38.35823544690339,
        "lon": 80.58828159375935,
        "alt_km": 777.74822050896,
        "timestamp": "2025-12-25T07:41:10.004114+00:00",
        "meta_object_name": "FENGYUN 1C DEB",
        "meta_object_id": "1999-025BKL",
        "meta_epoch": "2025-12-24T17:19:53.240736",
        "meta_mean_motion": 14.40554494,
        "meta_eccentricity": 0.00771675,
        "meta_inclination": 98.8438,
        "meta_ra_of_asc_node": 267.048,
        "meta_arg_of_pericenter": 326.486,
        "meta_mean_anomaly": 33.1458,
        "meta_ephemeris_type": 0,
        "meta_classification_type": "U",
        "meta_norad_cat_id": 31206,
        "meta_element_set_no": 999,
        "meta_rev_at_epoch": 98018,
        "meta_bstar": 0.00077714096,
        "meta_mean_motion_dot": 2.515e-05,
        "meta_mean_motion_ddot": 0,
        "tle_line1": "1 31206U 99025BKL 25358.72214399  .00002515  00000+0  77714-3 0  9998",
        "tle_line2": "2 31206  98.8438 267.0480 0077167 326.4860  33.1458 14.40554494980188"
      },
      "geometry": {
        "type": "Point",
        "coordinates": [
          80.58828159375935,
          -38.35823544690339
        ]
      }
    },
    {
      "type": "Feature",
      "properties": {
        "norad_id": 31208,
        "name": "FENGYUN 1C DEB",
        "group": "fengyun-1c-debris",
        "lat": -1.764430751859659,
        "lon": 144.78266267504637,
        "alt_km": 695.4236282120883,
        "timestamp": "2025-12-25T07:41:10.004124+00:00",
        "meta_object_name": "FENGYUN 1C DEB",
        "meta_object_id": "1999-025BKN",
        "meta_epoch": "2025-12-13T08:25:55.088256",
        "meta_mean_motion": 14.61862471,
        "meta_eccentricity": 0.00160842,
        "meta_inclination": 99.2396,
        "meta_ra_of_asc_node": 131.1249,
        "meta_arg_of_pericenter": 265.8015,
        "meta_mean_anomaly": 126.2818,
        "meta_ephemeris_type": 0,
        "meta_classification_type": "U",
        "meta_norad_cat_id": 31208,
        "meta_element_set_no": 999,
        "meta_rev_at_epoch": 70488,
        "meta_bstar": 0.0052061327,
        "meta_mean_motion_dot": 0.00026113,
        "meta_mean_motion_ddot": 0,
        "tle_line1": "1 31208U 99025BKN 25347.35133204  .00026113  00000+0  52061-2 0  9999",
        "tle_line2": "2 31208  99.2396 131.1249 0016084 265.8015 126.2818 14.61862471704886"
      },
      "geometry": {
        "type": "Point",
        "coordinates": [
          144.78266267504637,
          -1.764430751859659
        ]
      }
    },
    {
      "type": "Feature",
      "properties": {
        "norad_id": 31209,
        "name": "FENGYUN 1C DEB",
        "group": "fengyun-1c-debris",
        "lat": 75.80801526482958,
        "lon": 56.735585431952316,
        "alt_km": 750.345963001997,
        "timestamp": "2025-12-25T07:41:10.004134+00:00",
        "meta_object_name": "FENGYUN 1C DEB",
        "meta_object_id": "1999-025BKP",
        "meta_epoch": "2025-12-21T00:11:20.723136",
        "meta_mean_motion": 14.43601309,
        "meta_eccentricity": 0.00221345,
        "meta_inclination": 98.8841,
        "meta_ra_of_asc_node": 90.4449,
        "meta_arg_of_pericenter": 316.9887,
        "meta_mean_anomaly": 42.9572,
        "meta_ephemeris_type": 0,
        "meta_classification_type": "U",
        "meta_norad_cat_id": 31209,
        "meta_element_set_no": 999,
        "meta_rev_at_epoch": 64927,
        "meta_bstar": 0.001595757,
        "meta_mean_motion_dot": 5.381e-05,
        "meta_mean_motion_ddot": 0,
        "tle_line1": "1 31209U 99025BKP 25355.00787874  .00005381  00000+0  15958-2 0  9997",
        "tle_line2": "2 31209  98.8841  90.4449 0022134 316.9887  42.9572 14.43601309649277"
      },
      "geometry": {
        "type": "Point",
        "coordinates": [
          56.735585431952316,
          75.80801526482958
        ]
      }
    },
    {
      "type": "Feature",
      "properties": {
        "norad_id": 31210,
        "name": "FENGYUN 1C DEB",
        "group": "fengyun-1c-debris",
        "lat": -45.480172343211535,
        "lon": 8.977257193688068,
        "alt_km": 871.4505322537207,
        "timestamp": "2025-12-25T07:41:10.004144+00:00",
        "meta_object_name": "FENGYUN 1C DEB",
        "meta_object_id": "1999-025BKQ",
        "meta_epoch": "2025-12-20T05:44:41.256096",
        "meta_mean_motion": 14.12005396,
        "meta_eccentricity": 0.0017465,
        "meta_inclination": 98.7185,
        "meta_ra_of_asc_node": 355.0606,
        "meta_arg_of_pericenter": 134.4184,
        "meta_mean_anomaly": 286.6721,
        "meta_ephemeris_type": 0,
        "meta_classification_type": "U",
        "meta_norad_cat_id": 31210,
        "meta_element_set_no": 999,
        "meta_rev_at_epoch": 96073,
        "meta_bstar": 0.00028459,
        "meta_mean_motion_dot": 4.79e-06,
        "meta_mean_motion_ddot": 0,
        "tle_line1": "1 31210U 99025BKQ 25354.23936639  .00000479  00000+0  28459-3 0  9992",
        "tle_line2": "2 31210  98.7185 355.0606 0017465 134.4184 286.6721 14.12005396960738"
      },
      "geometry": {
        "type": "Point",
        "coordinates": [
          8.977257193688068,
          -45.480172343211535
        ]
      }
    },
    {
      "type": "Feature",
      "properties": {
        "norad_id": 31211,
        "name": "FENGYUN 1C DEB",
        "group": "fengyun-1c-debris",
        "lat": 69.35132655462127,
        "lon": -121.13076010499981,
        "alt_km": 797.6204966813984,
        "timestamp": "2025-12-25T07:41:10.004154+00:00",
        "meta_object_name": "FENGYUN 1C DEB",
        "meta_object_id": "1999-025BKR",
        "meta_epoch": "2025-12-22T19:59:46.021056",
        "meta_mean_motion": 14.20094058,
        "meta_eccentricity": 0.0050213,
        "meta_inclination": 98.6718,
        "meta_ra_of_asc_node": 32.542,
        "meta_arg_of_pericenter": 60.4625,
        "meta_mean_anomaly": 300.1545,
        "meta_ephemeris_type": 0,
        "meta_classification_type": "U",
        "meta_norad_cat_id": 31211,
        "meta_element_set_no": 999,
        "meta_rev_at_epoch": 63436,
        "meta_bstar": 0.00098818,
        "meta_mean_motion_dot": 2.09e-05,
        "meta_mean_motion_ddot": 0,
        "tle_line1": "1 31211U 99025BKR 25356.83317154  .00002090  00000+0  98818-3 0  9993",
        "tle_line2": "2 31211  98.6718  32.5420 0050213  60.4625 300.1545 14.20094058634362"
      },
      "geometry": {
        "type": "Point",
        "coordinates": [
          -121.13076010499981,
          69.35132655462127
        ]
      }
    }
  ]
}